{
  "norad_id": 47263,
  "name": "ONEWEB-0117",
  "history": [
    {
      "epoch": "2026-03-28T19:00:14.793696Z",
      "apogee_km": 1215.1081935223892,
      "perigee_km": 1212.3310923624003,
      "latitude_deg": 2.0944399473411593e-05,
      "longitude_deg": -104.65784655914278,
      "height_km": 1216.3302156145076,
      "semi_major_axis_km": 7591.8566429423945,
      "eccentricity": 0.0001829,
      "inclination_deg": 87.9017,
      "raan_deg": 6.611,
      "arg_perigee_deg": 78.4851,
      "mean_anomaly_deg": 281.6483,
      "mean_motion_rev_day": 13.12443946
    },
    {
      "epoch": "2026-03-29T04:09:09.279648Z",
      "apogee_km": 1215.1106375863255,
      "perigee_km": 1212.3304993447528,
      "latitude_deg": -3.0203455519879336e-05,
      "longitude_deg": 117.66391253964487,
      "height_km": 1216.3401791122387,
      "semi_major_axis_km": 7591.857568465539,
      "eccentricity": 0.0001831,
      "inclination_deg": 87.9017,
      "raan_deg": 6.5355,
      "arg_perigee_deg": 78.8777,
      "mean_anomaly_deg": 281.2557,
      "mean_motion_rev_day": 13.12443706
    },
    {
      "epoch": "2026-03-30T00:16:45.105888Z",
      "apogee_km": 1215.1034089444302,
      "perigee_km": 1212.339972381029,
      "latitude_deg": 1.3332472567358574e-05,
      "longitude_deg": 174.77196771352988,
      "height_km": 1216.3364417844402,
      "semi_major_axis_km": 7591.85869066273,
      "eccentricity": 0.000182,
      "inclination_deg": 87.9018,
      "raan_deg": 6.3694,
      "arg_perigee_deg": 78.6035,
      "mean_anomaly_deg": 281.5298,
      "mean_motion_rev_day": 13.12443415
    },
    {
      "epoch": "2026-03-30T05:46:05.810592Z",
      "apogee_km": 1215.0969067552996,
      "perigee_km": 1212.3469836081767,
      "latitude_deg": 2.176270148865635e-05,
      "longitude_deg": 92.16496998924956,
      "height_km": 1216.3353040530837,
      "semi_major_axis_km": 7591.858945181738,
      "eccentricity": 0.00018111,
      "inclination_deg": 87.9018,
      "raan_deg": 6.3241,
      "arg_perigee_deg": 78.4869,
      "mean_anomaly_deg": 281.6463,
      "mean_motion_rev_day": 13.12443349
    },
    {
      "epoch": "2026-03-30T11:15:26.502336Z",
      "apogee_km": 1215.0956033457996,
      "perigee_km": 1212.3481096256364,
      "latitude_deg": -4.585073673110989e-05,
      "longitude_deg": 9.558023640888038,
      "height_km": 1216.3307447312452,
      "semi_major_axis_km": 7591.858856485717,
      "eccentricity": 0.00018095,
      "inclination_deg": 87.9018,
      "raan_deg": 6.2788,
      "arg_perigee_deg": 78.2856,
      "mean_anomaly_deg": 281.8475,
      "mean_motion_rev_day": 13.12443372
    },
    {
      "epoch": "2026-03-30T18:34:34.146912Z",
      "apogee_km": 1215.0998134748006,
      "perigee_km": 1212.3473085098076,
      "latitude_deg": 7.251577494628676e-06,
      "longitude_deg": -100.58479850252941,
      "height_km": 1216.3351722830769,
      "semi_major_axis_km": 7591.860560992303,
      "eccentricity": 0.00018128,
      "inclination_deg": 87.9019,
      "raan_deg": 6.2184,
      "arg_perigee_deg": 78.4236,
      "mean_anomaly_deg": 281.7096,
      "mean_motion_rev_day": 13.1244293
    },
    {
      "epoch": "2026-03-31T11:02:36.175488Z",
      "apogee_km": 1215.0962098521832,
      "perigee_km": 1212.3464387671174,
      "latitude_deg": -6.246621078684686e-05,
      "longitude_deg": 11.594562351284848,
      "height_km": 1216.3298867809153,
      "semi_major_axis_km": 7591.85832430965,
      "eccentricity": 0.0001811,
      "inclination_deg": 87.9017,
      "raan_deg": 6.0825,
      "arg_perigee_deg": 78.2816,
      "mean_anomaly_deg": 281.8515,
      "mean_motion_rev_day": 13.1244351
    },
    {
      "epoch": "2026-04-01T10:49:45.820128Z",
      "apogee_km": 1215.0911488127058,
      "perigee_km": 1212.3489700428418,
      "latitude_deg": 2.6585551097544856e-06,
      "longitude_deg": 13.63112322140531,
      "height_km": 1216.326641152013,
      "semi_major_axis_km": 7591.8570594277735,
      "eccentricity": 0.0001806,
      "inclination_deg": 87.9018,
      "raan_deg": 5.8861,
      "arg_perigee_deg": 78.1641,
      "mean_anomaly_deg": 281.969,
      "mean_motion_rev_day": 13.12443838
    },
    {
      "epoch": "2026-04-02T06:57:21.629952Z",
      "apogee_km": 1215.0829769077018,
      "perigee_km": 1212.3534012930131,
      "latitude_deg": -1.078298588645359e-05,
      "longitude_deg": 70.7392453509299,
      "height_km": 1216.328096271014,
      "semi_major_axis_km": 7591.855189100357,
      "eccentricity": 0.00017977,
      "inclination_deg": 87.9017,
      "raan_deg": 5.72,
      "arg_perigee_deg": 78.2506,
      "mean_anomaly_deg": 281.8824,
      "mean_motion_rev_day": 13.12444323
    },
    {
      "epoch": "2026-04-03T17:43:12.452448Z",
      "apogee_km": 1215.0787671672888,
      "perigee_km": 1212.3532919296804,
      "latitude_deg": -6.470648775723902e-05,
      "longitude_deg": -92.43722814342682,
      "height_km": 1216.354337691148,
      "semi_major_axis_km": 7591.853029548484,
      "eccentricity": 0.0001795,
      "inclination_deg": 87.9012,
      "raan_deg": 5.433,
      "arg_perigee_deg": 79.4497,
      "mean_anomaly_deg": 280.6833,
      "mean_motion_rev_day": 13.12444883
    },
    {
      "epoch": "2026-04-04T06:31:40.574496Z",
      "apogee_km": 1215.121741772742,
      "perigee_km": 1212.305165254489,
      "latitude_deg": 5.60913958776243e-05,
      "longitude_deg": 74.81300264700278,
      "height_km": 1216.3447294590915,
      "semi_major_axis_km": 7591.850453513615,
      "eccentricity": 0.0001855,
      "inclination_deg": 87.902,
      "raan_deg": 5.3264,
      "arg_perigee_deg": 79.5087,
      "mean_anomaly_deg": 280.6251,
      "mean_motion_rev_day": 13.12445551
    },
    {
      "epoch": "2026-04-05T11:48:10.427904Z",
      "apogee_km": 1215.0824137667778,
      "perigee_km": 1212.337505580038,
      "latitude_deg": 3.94484819205626e-05,
      "longitude_deg": -5.754668588501425,
      "height_km": 1216.3301184796821,
      "semi_major_axis_km": 7591.846959673408,
      "eccentricity": 0.00018078,
      "inclination_deg": 87.9015,
      "raan_deg": 5.0854,
      "arg_perigee_deg": 78.755,
      "mean_anomaly_deg": 281.3782,
      "mean_motion_rev_day": 13.12446457
    },
    {
      "epoch": "2026-04-05T17:17:31.205184Z",
      "apogee_km": 1215.0972113230464,
      "perigee_km": 1212.3352951095258,
      "latitude_deg": 3.807286145863304e-05,
      "longitude_deg": -88.36197057220825,
      "height_km": 1216.3268012854412,
      "semi_major_axis_km": 7591.853253216285,
      "eccentricity": 0.0001819,
      "inclination_deg": 87.9016,
      "raan_deg": 5.0401,
      "arg_perigee_deg": 78.4192,
      "mean_anomaly_deg": 281.7141,
      "mean_motion_rev_day": 13.12444825
    },
    {
      "epoch": "2026-04-06T04:16:12.493632Z",
      "apogee_km": 1215.0949101361093,
      "perigee_km": 1212.3417997101988,
      "latitude_deg": -1.7327982844671275e-05,
      "longitude_deg": 106.42443525414377,
      "height_km": 1216.3363775065225,
      "semi_major_axis_km": 7591.855354923154,
      "eccentricity": 0.00018132,
      "inclination_deg": 87.9016,
      "raan_deg": 4.9494,
      "arg_perigee_deg": 78.6984,
      "mean_anomaly_deg": 281.4348,
      "mean_motion_rev_day": 13.1244428
    },
    {
      "epoch": "2026-04-07T05:53:08.810304Z",
      "apogee_km": 1215.1160247918306,
      "perigee_km": 1212.3261687784234,
      "latitude_deg": 2.4853950966026107e-05,
      "longitude_deg": 80.9262841347645,
      "height_km": 1216.330979984001,
      "semi_major_axis_km": 7591.858096785127,
      "eccentricity": 0.00018374,
      "inclination_deg": 87.9015,
      "raan_deg": 4.7379,
      "arg_perigee_deg": 78.5103,
      "mean_anomaly_deg": 281.6232,
      "mean_motion_rev_day": 13.12443569
    },
    {
      "epoch": "2026-04-07T18:41:37.022208Z",
      "apogee_km": 1215.1287314938863,
      "perigee_km": 1212.3227790195442,
      "latitude_deg": -1.116316827248495e-05,
      "longitude_deg": -111.82296750328254,
      "height_km": 1216.3395408870792,
      "semi_major_axis_km": 7591.862755256715,
      "eccentricity": 0.0001848,
      "inclination_deg": 87.9016,
      "raan_deg": 4.6322,
      "arg_perigee_deg": 78.7403,
      "mean_anomaly_deg": 281.3933,
      "mean_motion_rev_day": 13.12442361
    },
    {
      "epoch": "2026-04-08T11:09:39.023136Z",
      "apogee_km": 1215.126497573624,
      "perigee_km": 1212.3314761918937,
      "latitude_deg": -2.1515930336339982e-05,
      "longitude_deg": 0.3564080384116844,
      "height_km": 1216.340979661843,
      "semi_major_axis_km": 7591.865986882759,
      "eccentricity": 0.00018408,
      "inclination_deg": 87.9014,
      "raan_deg": 4.4962,
      "arg_perigee_deg": 78.6202,
      "mean_anomaly_deg": 281.5133,
      "mean_motion_rev_day": 13.12441523
    },
    {
      "epoch": "2026-04-09T03:37:41.018880Z",
      "apogee_km": 1215.1170245812646,
      "perigee_km": 1212.3406792392207,
      "latitude_deg": 1.8221934580383674e-05,
      "longitude_deg": 112.53590705822648,
      "height_km": 1216.3422477919655,
      "semi_major_axis_km": 7591.865851910242,
      "eccentricity": 0.00018285,
      "inclination_deg": 87.9012,
      "raan_deg": 4.3603,
      "arg_perigee_deg": 78.6011,
      "mean_anomaly_deg": 281.5323,
      "mean_motion_rev_day": 13.12441558
    },
    {
      "epoch": "2026-04-10T10:43:58.232928Z",
      "apogee_km": 1215.1115736766506,
      "perigee_km": 1212.3466160449034,
      "latitude_deg": 1.7445038110031362e-05,
      "longitude_deg": 4.429850301954632,
      "height_km": 1216.3387884472377,
      "semi_major_axis_km": 7591.866094860777,
      "eccentricity": 0.0001821,
      "inclination_deg": 87.9009,
      "raan_deg": 4.1034,
      "arg_perigee_deg": 78.3964,
      "mean_anomaly_deg": 281.7369,
      "mean_motion_rev_day": 13.12441495
    }
  ]
}